CCSDS_OMM_VERS = 2.0
CREATION_DATE  = 
ORIGINATOR     = 

OBJECT_NAME    = STARLINK-36819
OBJECT_ID      = 2026-038G
CENTER_NAME    = EARTH
REF_FRAME      = TEME
TIME_SYSTEM    = UTC
MEAN_ELEMENT_THEORY = SGP/SGP4

EPOCH          = 2026-03-07T22:00:01.999584
MEAN_MOTION    = 15.94135128
ECCENTRICITY   = .0001185
INCLINATION    = 97.2734
RA_OF_ASC_NODE = 77.0711
ARG_OF_PERICENTER = 73.0613
MEAN_ANOMALY   = 275.2167

EPHEMERIS_TYPE = 0
CLASSIFICATION_TYPE = U
NORAD_CAT_ID   = 67967
ELEMENT_SET_NO = 999
REV_AT_EPOCH   = 291
BSTAR          = -.4421E-2
MEAN_MOTION_DOT = -.1614339E-1
MEAN_MOTION_DDOT = .74702E-3

CCSDS_OMM_VERS = 2.0
CREATION_DATE  = 
ORIGINATOR     = 

OBJECT_NAME    = STARLINK-36812
OBJECT_ID      = 2026-038H
CENTER_NAME    = EARTH
REF_FRAME      = TEME
TIME_SYSTEM    = UTC
MEAN_ELEMENT_THEORY = SGP/SGP4

EPOCH          = 2026-03-07T22:00:01.999584
MEAN_MOTION    = 15.94248951
ECCENTRICITY   = .0001218
INCLINATION    = 97.2730
RA_OF_ASC_NODE = 77.0718
ARG_OF_PERICENTER = 76.3578
MEAN_ANOMALY   = 274.9937

EPHEMERIS_TYPE = 0
CLASSIFICATION_TYPE = U
NORAD_CAT_ID   = 67968
ELEMENT_SET_NO = 999
REV_AT_EPOCH   = 291
BSTAR          = -.43902E-2
MEAN_MOTION_DOT = -.161276E-1
MEAN_MOTION_DDOT = .74654E-3

CCSDS_OMM_VERS = 2.0
CREATION_DATE  = 
ORIGINATOR     = 

OBJECT_NAME    = STARLINK-36709
OBJECT_ID      = 2026-038J
CENTER_NAME    = EARTH
REF_FRAME      = TEME
TIME_SYSTEM    = UTC
MEAN_ELEMENT_THEORY = SGP/SGP4

EPOCH          = 2026-03-07T22:00:01.999584
MEAN_MOTION    = 15.94525562
ECCENTRICITY   = .0001109
INCLINATION    = 97.2730
RA_OF_ASC_NODE = 77.0753
ARG_OF_PERICENTER = 68.2445
MEAN_ANOMALY   = 290.4774

EPHEMERIS_TYPE = 0
CLASSIFICATION_TYPE = U
NORAD_CAT_ID   = 67969
ELEMENT_SET_NO = 999
REV_AT_EPOCH   = 291
BSTAR          = -.43172E-2
MEAN_MOTION_DOT = -.1609263E-1
MEAN_MOTION_DDOT = .74568E-3

CCSDS_OMM_VERS = 2.0
CREATION_DATE  = 
ORIGINATOR     = 

OBJECT_NAME    = STARLINK-36319
OBJECT_ID      = 2026-038K
CENTER_NAME    = EARTH
REF_FRAME      = TEME
TIME_SYSTEM    = UTC
MEAN_ELEMENT_THEORY = SGP/SGP4

EPOCH          = 2026-03-07T22:00:01.999584
MEAN_MOTION    = 15.94385690
ECCENTRICITY   = .000122
INCLINATION    = 97.2728
RA_OF_ASC_NODE = 77.0735
ARG_OF_PERICENTER = 70.1877
MEAN_ANOMALY   = 284.8219

EPHEMERIS_TYPE = 0
CLASSIFICATION_TYPE = U
NORAD_CAT_ID   = 67970
ELEMENT_SET_NO = 999
REV_AT_EPOCH   = 288
BSTAR          = -.43597E-2
MEAN_MOTION_DOT = -.1613135E-1
MEAN_MOTION_DDOT = .74792E-3

CCSDS_OMM_VERS = 2.0
CREATION_DATE  = 
ORIGINATOR     = 

OBJECT_NAME    = STARLINK-36710
OBJECT_ID      = 2026-038L
CENTER_NAME    = EARTH
REF_FRAME      = TEME
TIME_SYSTEM    = UTC
MEAN_ELEMENT_THEORY = SGP/SGP4

EPOCH          = 2026-03-07T22:00:01.999584
MEAN_MOTION    = 15.94699137
ECCENTRICITY   = .0001104
INCLINATION    = 97.2725
RA_OF_ASC_NODE = 77.0771
ARG_OF_PERICENTER = 73.5136
MEAN_ANOMALY   = 289.7276

EPHEMERIS_TYPE = 0
CLASSIFICATION_TYPE = U
NORAD_CAT_ID   = 67971
ELEMENT_SET_NO = 999
REV_AT_EPOCH   = 291
BSTAR          = -.42808E-2
MEAN_MOTION_DOT = -.1610426E-1
MEAN_MOTION_DDOT = .74803E-3

CCSDS_OMM_VERS = 2.0
CREATION_DATE  = 
ORIGINATOR     = 

OBJECT_NAME    = STARLINK-36894
OBJECT_ID      = 2026-038M
CENTER_NAME    = EARTH
REF_FRAME      = TEME
TIME_SYSTEM    = UTC
MEAN_ELEMENT_THEORY = SGP/SGP4

EPOCH          = 2026-03-07T22:00:01.999584
MEAN_MOTION    = 15.94839859
ECCENTRICITY   = .0001211
INCLINATION    = 97.2720
RA_OF_ASC_NODE = 77.0788
ARG_OF_PERICENTER = 66.1592
MEAN_ANOMALY   = 300.7972

EPHEMERIS_TYPE = 0
CLASSIFICATION_TYPE = U
NORAD_CAT_ID   = 67972
ELEMENT_SET_NO = 999
REV_AT_EPOCH   = 291
BSTAR          = -.42441E-2
MEAN_MOTION_DOT = -.1608606E-1
MEAN_MOTION_DDOT = .74756E-3

CCSDS_OMM_VERS = 2.0
CREATION_DATE  = 
ORIGINATOR     = 

OBJECT_NAME    = STARLINK-36900
OBJECT_ID      = 2026-038N
CENTER_NAME    = EARTH
REF_FRAME      = TEME
TIME_SYSTEM    = UTC
MEAN_ELEMENT_THEORY = SGP/SGP4

EPOCH          = 2026-03-07T22:00:01.999584
MEAN_MOTION    = 15.95123174
ECCENTRICITY   = .000113
INCLINATION    = 97.2718
RA_OF_ASC_NODE = 77.0816
ARG_OF_PERICENTER = 73.1358
MEAN_ANOMALY   = 301.2507

EPHEMERIS_TYPE = 0
CLASSIFICATION_TYPE = U
NORAD_CAT_ID   = 67973
ELEMENT_SET_NO = 999
REV_AT_EPOCH   = 291
BSTAR          = -.4158E-2
MEAN_MOTION_DOT = -.1599934E-1
MEAN_MOTION_DDOT = .74229E-3

CCSDS_OMM_VERS = 2.0
CREATION_DATE  = 
ORIGINATOR     = 

OBJECT_NAME    = STARLINK-36901
OBJECT_ID      = 2026-038P
CENTER_NAME    = EARTH
REF_FRAME      = TEME
TIME_SYSTEM    = UTC
MEAN_ELEMENT_THEORY = SGP/SGP4

EPOCH          = 2026-03-07T22:00:01.999584
MEAN_MOTION    = 15.94977023
ECCENTRICITY   = .0001313
INCLINATION    = 97.2718
RA_OF_ASC_NODE = 77.0799
ARG_OF_PERICENTER = 66.2628
MEAN_ANOMALY   = 304.2154

EPHEMERIS_TYPE = 0
CLASSIFICATION_TYPE = U
NORAD_CAT_ID   = 67974
ELEMENT_SET_NO = 999
REV_AT_EPOCH   = 291
BSTAR          = -.42159E-2
MEAN_MOTION_DOT = -.1609602E-1
MEAN_MOTION_DDOT = .74949E-3

CCSDS_OMM_VERS = 2.0
CREATION_DATE  = 
ORIGINATOR     = 

OBJECT_NAME    = STARLINK-36883
OBJECT_ID      = 2026-038Q
CENTER_NAME    = EARTH
REF_FRAME      = TEME
TIME_SYSTEM    = UTC
MEAN_ELEMENT_THEORY = SGP/SGP4

EPOCH          = 2026-03-07T22:00:01.999584
MEAN_MOTION    = 15.95696693
ECCENTRICITY   = .0001194
INCLINATION    = 97.2709
RA_OF_ASC_NODE = 77.0880
ARG_OF_PERICENTER = 65.2783
MEAN_ANOMALY   = 324.1999

EPHEMERIS_TYPE = 0
CLASSIFICATION_TYPE = U
NORAD_CAT_ID   = 67975
ELEMENT_SET_NO = 999
REV_AT_EPOCH   = 291
BSTAR          = -.39911E-2
MEAN_MOTION_DOT = -.1583685E-1
MEAN_MOTION_DDOT = .73277E-3

CCSDS_OMM_VERS = 2.0
CREATION_DATE  = 
ORIGINATOR     = 

OBJECT_NAME    = STARLINK-36880
OBJECT_ID      = 2026-038R
CENTER_NAME    = EARTH
REF_FRAME      = TEME
TIME_SYSTEM    = UTC
MEAN_ELEMENT_THEORY = SGP/SGP4

EPOCH          = 2026-03-07T22:00:01.999584
MEAN_MOTION    = 15.95261639
ECCENTRICITY   = .0001209
INCLINATION    = 97.2715
RA_OF_ASC_NODE = 77.0831
ARG_OF_PERICENTER = 69.6294
MEAN_ANOMALY   = 308.5611

EPHEMERIS_TYPE = 0
CLASSIFICATION_TYPE = U
NORAD_CAT_ID   = 67976
ELEMENT_SET_NO = 999
REV_AT_EPOCH   = 291
BSTAR          = -.41014E-2
MEAN_MOTION_DOT = -.1589994E-1
MEAN_MOTION_DDOT = .73482E-3

CCSDS_OMM_VERS = 2.0
CREATION_DATE  = 
ORIGINATOR     = 

OBJECT_NAME    = STARLINK-36904
OBJECT_ID      = 2026-038S
CENTER_NAME    = EARTH
REF_FRAME      = TEME
TIME_SYSTEM    = UTC
MEAN_ELEMENT_THEORY = SGP/SGP4

EPOCH          = 2026-03-07T22:00:01.999584
MEAN_MOTION    = 15.95553820
ECCENTRICITY   = .0001191
INCLINATION    = 97.2709
RA_OF_ASC_NODE = 77.0860
ARG_OF_PERICENTER = 62.4649
MEAN_ANOMALY   = 323.2287

EPHEMERIS_TYPE = 0
CLASSIFICATION_TYPE = U
NORAD_CAT_ID   = 67977
ELEMENT_SET_NO = 999
REV_AT_EPOCH   = 291
BSTAR          = -.40396E-2
MEAN_MOTION_DOT = -.1590629E-1
MEAN_MOTION_DDOT = .73763E-3

CCSDS_OMM_VERS = 2.0
CREATION_DATE  = 
ORIGINATOR     = 

OBJECT_NAME    = STARLINK-36364
OBJECT_ID      = 2026-038T
CENTER_NAME    = EARTH
REF_FRAME      = TEME
TIME_SYSTEM    = UTC
MEAN_ELEMENT_THEORY = SGP/SGP4

EPOCH          = 2026-03-07T22:00:01.999584
MEAN_MOTION    = 15.96044551
ECCENTRICITY   = .0001152
INCLINATION    = 97.2701
RA_OF_ASC_NODE = 77.0916
ARG_OF_PERICENTER = 69.3567
MEAN_ANOMALY   = 329.0122

EPHEMERIS_TYPE = 0
CLASSIFICATION_TYPE = U
NORAD_CAT_ID   = 67978
ELEMENT_SET_NO = 999
REV_AT_EPOCH   = 291
BSTAR          = -.39096E-2
MEAN_MOTION_DOT = -.158061E-1
MEAN_MOTION_DDOT = .73282E-3

CCSDS_OMM_VERS = 2.0
CREATION_DATE  = 
ORIGINATOR     = 

OBJECT_NAME    = STARLINK-36359
OBJECT_ID      = 2026-038U
CENTER_NAME    = EARTH
REF_FRAME      = TEME
TIME_SYSTEM    = UTC
MEAN_ELEMENT_THEORY = SGP/SGP4

EPOCH          = 2026-03-07T22:00:01.999584
MEAN_MOTION    = 15.95387825
ECCENTRICITY   = .0001209
INCLINATION    = 97.2712
RA_OF_ASC_NODE = 77.0840
ARG_OF_PERICENTER = 68.7983
MEAN_ANOMALY   = 312.5606

EPHEMERIS_TYPE = 0
CLASSIFICATION_TYPE = U
NORAD_CAT_ID   = 67979
ELEMENT_SET_NO = 999
REV_AT_EPOCH   = 291
BSTAR          = -.40965E-2
MEAN_MOTION_DOT = -.1598685E-1
MEAN_MOTION_DDOT = .74328E-3

CCSDS_OMM_VERS = 2.0
CREATION_DATE  = 
ORIGINATOR     = 

OBJECT_NAME    = STARLINK-36882
OBJECT_ID      = 2026-038V
CENTER_NAME    = EARTH
REF_FRAME      = TEME
TIME_SYSTEM    = UTC
MEAN_ELEMENT_THEORY = SGP/SGP4

EPOCH          = 2026-03-07T22:00:01.999584
MEAN_MOTION    = 15.95882068
ECCENTRICITY   = .0001261
INCLINATION    = 97.2705
RA_OF_ASC_NODE = 77.0895
ARG_OF_PERICENTER = 66.4862
MEAN_ANOMALY   = 327.6648

EPHEMERIS_TYPE = 0
CLASSIFICATION_TYPE = U
NORAD_CAT_ID   = 67980
ELEMENT_SET_NO = 999
REV_AT_EPOCH   = 291
BSTAR          = -.39692E-2
MEAN_MOTION_DOT = -.1590649E-1
MEAN_MOTION_DDOT = .74021E-3

CCSDS_OMM_VERS = 2.0
CREATION_DATE  = 
ORIGINATOR     = 

OBJECT_NAME    = STARLINK-36874
OBJECT_ID      = 2026-038W
CENTER_NAME    = EARTH
REF_FRAME      = TEME
TIME_SYSTEM    = UTC
MEAN_ELEMENT_THEORY = SGP/SGP4

EPOCH          = 2026-03-07T22:00:01.999584
MEAN_MOTION    = 15.96162558
ECCENTRICITY   = .0001273
INCLINATION    = 97.2701
RA_OF_ASC_NODE = 77.0929
ARG_OF_PERICENTER = 60.3642
MEAN_ANOMALY   = 341.0978

EPHEMERIS_TYPE = 0
CLASSIFICATION_TYPE = U
NORAD_CAT_ID   = 67981
ELEMENT_SET_NO = 999
REV_AT_EPOCH   = 291
BSTAR          = -.38962E-2
MEAN_MOTION_DOT = -.1585212E-1
MEAN_MOTION_DDOT = .73772E-3

